start=new Date('2023-03-07T00:00:00.000Z').valueOf();
sats=[{"LAUNCH_DATE":"2021-05-04","CLASSIFICATION_TYPE":"U","MEAN_MOTION_DDOT":"0.0000000000000","PERIAPSIS":"546.061","REF_FRAME":"TEME","ECCENTRICITY":"0.00015920","EPHEMERIS_TYPE":"0","INCLINATION":"53.0533","MEAN_MOTION_DOT":"0.00012582","OBJECT_TYPE":"PAYLOAD","ARG_OF_PERICENTER":"90.3048","DECAY_DATE":null,"SITE":"AFETR","TLE_LINE1":"1 48405U 21038BE  23065.89189272  .00012582  00000-0  86168-3 0  9997","MEAN_ELEMENT_THEORY":"SGP4","MEAN_MOTION":"15.06416493","EPOCH":"2023-03-06T21:24:19.531008","NORAD_CAT_ID":"48405","CENTER_NAME":"EARTH","APOAPSIS":"548.266","FILE":"3853141","SEMIMAJOR_AXIS":"6925.298","GP_ID":"227626163","MEAN_ANOMALY":"269.8124","TLE_LINE2":"2 48405  53.0533 234.3107 0001592  90.3048 269.8124 15.06416493101691","PERIOD":"95.591","TIME_SYSTEM":"UTC","RCS_SIZE":"LARGE","BSTAR":"0.00086168000000","OBJECT_ID":"2021-038BE","RA_OF_ASC_NODE":"234.3107","COUNTRY_CODE":"US","REV_AT_EPOCH":"10169","ELEMENT_SET_NO":"999","OBJECT_NAME":"STARLINK-2570"},{"SEMIMAJOR_AXIS":"6925.415","FILE":"3853141","CENTER_NAME":"EARTH","APOAPSIS":"548.115","NORAD_CAT_ID":"48406","MEAN_ANOMALY":"260.0846","GP_ID":"227625412","RCS_SIZE":"LARGE","TIME_SYSTEM":"UTC","PERIOD":"95.594","TLE_LINE2":"2 48406  53.0526 234.3294 0001206 100.0279 260.0846 15.06378230101698","OBJECT_ID":"2021-038BF","BSTAR":"0.00184160000000","RA_OF_ASC_NODE":"234.3294","REV_AT_EPOCH":"10169","COUNTRY_CODE":"US","ELEMENT_SET_NO":"999","OBJECT_NAME":"STARLINK-2568","MEAN_MOTION_DDOT":"0.0000000000000","LAUNCH_DATE":"2021-05-04","CLASSIFICATION_TYPE":"U","PERIAPSIS":"546.445","REF_FRAME":"TEME","ECCENTRICITY":"0.00012060","OBJECT_TYPE":"PAYLOAD","INCLINATION":"53.0526","MEAN_MOTION_DOT":"0.00027239","EPHEMERIS_TYPE":"0","SITE":"AFETR","DECAY_DATE":null,"ARG_OF_PERICENTER":"100.0279","EPOCH":"2023-03-06T21:19:02.095680","MEAN_MOTION":"15.06378230","MEAN_ELEMENT_THEORY":"SGP4","TLE_LINE1":"1 48406U 21038BF  23065.88821870  .00027239  00000-0  18416-2 0  9999"},{"OBJECT_TYPE":"PAYLOAD","INCLINATION":"53.0527","MEAN_MOTION_DOT":"0.00006174","EPHEMERIS_TYPE":"0","ECCENTRICITY":"0.00010980","REF_FRAME":"TEME","MEAN_MOTION":"15.06411398","EPOCH":"2023-03-06T21:13:42.550464","MEAN_ELEMENT_THEORY":"SGP4","TLE_LINE1":"1 48407U 21038BG  23065.88452026  .00006174  00000-0  43289-3 0  9995","DECAY_DATE":null,"SITE":"AFETR","ARG_OF_PERICENTER":"77.4783","MEAN_MOTION_DDOT":"0.0000000000000","CLASSIFICATION_TYPE":"U","LAUNCH_DATE":"2021-05-04","PERIAPSIS":"546.418","REV_AT_EPOCH":"10168","COUNTRY_CODE":"US","RA_OF_ASC_NODE":"234.3459","OBJECT_NAME":"STARLINK-2595","ELEMENT_SET_NO":"999","MEAN_ANOMALY":"282.6329","GP_ID":"227625662","SEMIMAJOR_AXIS":"6925.314","FILE":"3853141","CENTER_NAME":"EARTH","APOAPSIS":"547.939","NORAD_CAT_ID":"48407","OBJECT_ID":"2021-038BG","BSTAR":"0.00043289000000","RCS_SIZE":"LARGE","TIME_SYSTEM":"UTC","PERIOD":"95.591","TLE_LINE2":"2 48407  53.0527 234.3459 0001098  77.4783 282.6329 15.06411398101687"},{"OBJECT_NAME":"STARLINK-2592","ELEMENT_SET_NO":"999","COUNTRY_CODE":"US","REV_AT_EPOCH":"10168","RA_OF_ASC_NODE":"234.3646","OBJECT_ID":"2021-038BH","BSTAR":"0.00022503000000","TIME_SYSTEM":"UTC","RCS_SIZE":"LARGE","TLE_LINE2":"2 48408  53.0515 234.3646 0001282  75.5506 284.5625 15.06406419101688","PERIOD":"95.592","MEAN_ANOMALY":"284.5625","GP_ID":"227625913","FILE":"3853141","SEMIMAJOR_AXIS":"6925.329","NORAD_CAT_ID":"48408","APOAPSIS":"548.082","CENTER_NAME":"EARTH","MEAN_ELEMENT_THEORY":"SGP4","MEAN_MOTION":"15.06406419","EPOCH":"2023-03-06T21:08:24.103392","TLE_LINE1":"1 48408U 21038BH  23065.88083453  .00003073  00000-0  22503-3 0  9991","DECAY_DATE":null,"SITE":"AFETR","ARG_OF_PERICENTER":"75.5506","MEAN_MOTION_DOT":"0.00003073","INCLINATION":"53.0515","OBJECT_TYPE":"PAYLOAD","EPHEMERIS_TYPE":"0","ECCENTRICITY":"0.00012820","REF_FRAME":"TEME","PERIAPSIS":"546.306","MEAN_MOTION_DDOT":"0.0000000000000","CLASSIFICATION_TYPE":"U","LAUNCH_DATE":"2021-05-04"},{"ELEMENT_SET_NO":"999","OBJECT_NAME":"STARLINK-2596","RA_OF_ASC_NODE":"239.5550","REV_AT_EPOCH":"10162","COUNTRY_CODE":"US","PERIOD":"95.591","TLE_LINE2":"2 48409  53.0524 239.5550 0000789  94.6143 265.4936 15.06410735101623","RCS_SIZE":"LARGE","TIME_SYSTEM":"UTC","BSTAR":"0.00034531000000","OBJECT_ID":"2021-038BJ","APOAPSIS":"547.727","CENTER_NAME":"EARTH","NORAD_CAT_ID":"48409","SEMIMAJOR_AXIS":"6925.316","FILE":"3853141","GP_ID":"227626663","MEAN_ANOMALY":"265.4936","ARG_OF_PERICENTER":"94.6143","SITE":"AFETR","DECAY_DATE":null,"TLE_LINE1":"1 48409U 21038BJ  23065.83798226  .00004867  00000-0  34531-3 0  9994","MEAN_MOTION":"15.06410735","MEAN_ELEMENT_THEORY":"SGP4","EPOCH":"2023-03-06T20:06:41.667264","REF_FRAME":"TEME","ECCENTRICITY":"0.00007890","EPHEMERIS_TYPE":"0","OBJECT_TYPE":"PAYLOAD","INCLINATION":"53.0524","MEAN_MOTION_DOT":"0.00004867","PERIAPSIS":"546.634","LAUNCH_DATE":"2021-05-04","CLASSIFICATION_TYPE":"U","MEAN_MOTION_DDOT":"0.0000000000000"},{"MEAN_MOTION_DOT":"0.00006570","INCLINATION":"53.0534","OBJECT_TYPE":"PAYLOAD","EPHEMERIS_TYPE":"0","ECCENTRICITY":"0.00013100","REF_FRAME":"TEME","MEAN_MOTION":"15.06415735","MEAN_ELEMENT_THEORY":"SGP4","EPOCH":"2023-03-06T18:37:47.113536","TLE_LINE1":"1 48410U 21038BK  23065.77623974  .00006570  00000-0  45938-3 0  9992","SITE":"AFETR","DECAY_DATE":null,"ARG_OF_PERICENTER":"85.1157","MEAN_MOTION_DDOT":"0.0000000000000","LAUNCH_DATE":"2021-05-04","CLASSIFICATION_TYPE":"U","PERIAPSIS":"546.258","REV_AT_EPOCH":"10231","COUNTRY_CODE":"US","RA_OF_ASC_NODE":"189.8312","OBJECT_NAME":"STARLINK-2563","ELEMENT_SET_NO":"999","MEAN_ANOMALY":"274.9981","GP_ID":"227624913","FILE":"3853141","SEMIMAJOR_AXIS":"6925.300","NORAD_CAT_ID":"48410","APOAPSIS":"548.073","CENTER_NAME":"EARTH","OBJECT_ID":"2021-038BK","BSTAR":"0.00045938000000","TIME_SYSTEM":"UTC","RCS_SIZE":"LARGE","TLE_LINE2":"2 48410  53.0534 189.8312 0001310  85.1157 274.9981 15.06415735102317","PERIOD":"95.591"},{"TLE_LINE1":"1 48411U 21038BL  23065.79328872  .00024833  00000-0  16790-2 0  9999","EPOCH":"2023-03-06T19:02:20.145408","MEAN_MOTION":"15.06426127","MEAN_ELEMENT_THEORY":"SGP4","ARG_OF_PERICENTER":"52.5782","SITE":"AFETR","DECAY_DATE":null,"EPHEMERIS_TYPE":"0","INCLINATION":"53.0544","MEAN_MOTION_DOT":"0.00024833","OBJECT_TYPE":"PAYLOAD","REF_FRAME":"TEME","ECCENTRICITY":"0.00012450","PERIAPSIS":"546.271","LAUNCH_DATE":"2021-05-04","CLASSIFICATION_TYPE":"U","MEAN_MOTION_DDOT":"0.0000000000000","OBJECT_NAME":"STARLINK-2505","ELEMENT_SET_NO":"999","REV_AT_EPOCH":"10238","COUNTRY_CODE":"US","RA_OF_ASC_NODE":"184.7589","BSTAR":"0.00167900000000","OBJECT_ID":"2021-038BL","TLE_LINE2":"2 48411  53.0544 184.7589 0001245  52.5782 307.5320 15.06426127102382","PERIOD":"95.590","TIME_SYSTEM":"UTC","RCS_SIZE":"LARGE","GP_ID":"227625163","MEAN_ANOMALY":"307.5320","NORAD_CAT_ID":"48411","APOAPSIS":"547.996","CENTER_NAME":"EARTH","FILE":"3853141","SEMIMAJOR_AXIS":"6925.268"},{"SITE":"AFETR","DECAY_DATE":null,"ARG_OF_PERICENTER":"103.1477","EPOCH":"2023-03-06T17:53:24.715680","MEAN_MOTION":"15.06434065","MEAN_ELEMENT_THEORY":"SGP4","TLE_LINE1":"1 48412U 21038BM  23065.74542495  .00020690  00000-0  14025-2 0  9990","ECCENTRICITY":"0.00013170","REF_FRAME":"TEME","OBJECT_TYPE":"PAYLOAD","INCLINATION":"53.0538","MEAN_MOTION_DOT":"0.00020690","EPHEMERIS_TYPE":"0","PERIAPSIS":"546.197","MEAN_MOTION_DDOT":"0.0000000000000","CLASSIFICATION_TYPE":"U","LAUNCH_DATE":"2021-05-04","ELEMENT_SET_NO":"999","OBJECT_NAME":"STARLINK-2581","RA_OF_ASC_NODE":"185.4034","REV_AT_EPOCH":"10237","COUNTRY_CODE":"US","RCS_SIZE":"LARGE","TIME_SYSTEM":"UTC","PERIOD":"95.590","TLE_LINE2":"2 48412  53.0538 185.4034 0001317 103.1477 256.9659 15.06434065102374","OBJECT_ID":"2021-038BM","BSTAR":"0.00140250000000","SEMIMAJOR_AXIS":"6925.244","FILE":"3853141","APOAPSIS":"548.021","CENTER_NAME":"EARTH","NORAD_CAT_ID":"48412","MEAN_ANOMALY":"256.9659","GP_ID":"227626413"},{"RA_OF_ASC_NODE":"79.9341","REV_AT_EPOCH":"10220","COUNTRY_CODE":"US","ELEMENT_SET_NO":"999","OBJECT_NAME":"STARLINK-2461","NORAD_CAT_ID":"48428","APOAPSIS":"548.342","CENTER_NAME":"EARTH","FILE":"3853032","SEMIMAJOR_AXIS":"6925.313","GP_ID":"227602723","MEAN_ANOMALY":"275.9199","TLE_LINE2":"2 48428  53.0528  79.9341 0001680  84.1982 275.9199 15.06411507102208","PERIOD":"95.591","TIME_SYSTEM":"UTC","RCS_SIZE":"LARGE","BSTAR":"0.00041441000000","OBJECT_ID":"2021-040A","ECCENTRICITY":"0.00016800","REF_FRAME":"TEME","EPHEMERIS_TYPE":"0","INCLINATION":"53.0528","MEAN_MOTION_DOT":"0.00005898","OBJECT_TYPE":"PAYLOAD","ARG_OF_PERICENTER":"84.1982","DECAY_DATE":null,"SITE":"AFETR","TLE_LINE1":"1 48428U 21040A   23065.75321113  .00005898  00000-0  41441-3 0  9999","MEAN_MOTION":"15.06411507","EPOCH":"2023-03-06T18:04:37.441632","MEAN_ELEMENT_THEORY":"SGP4","CLASSIFICATION_TYPE":"U","LAUNCH_DATE":"2021-05-09","MEAN_MOTION_DDOT":"0.0000000000000","PERIAPSIS":"546.015"},{"OBJECT_ID":"2021-040B","BSTAR":"0.00042675000000","RCS_SIZE":"LARGE","TIME_SYSTEM":"UTC","PERIOD":"95.592","TLE_LINE2":"2 48429  53.0549  52.4606 0001710 108.5620 251.5555 15.06405419101251","MEAN_ANOMALY":"251.5555","GP_ID":"227626665","SEMIMAJOR_AXIS":"6925.332","FILE":"3853141","CENTER_NAME":"EARTH","APOAPSIS":"548.381","NORAD_CAT_ID":"48429","OBJECT_NAME":"STARLINK-2749","ELEMENT_SET_NO":"999","REV_AT_EPOCH":"10125","COUNTRY_CODE":"US","RA_OF_ASC_NODE":"52.4606","PERIAPSIS":"546.013","MEAN_MOTION_DDOT":"0.0000000000000","LAUNCH_DATE":"2021-05-09","CLASSIFICATION_TYPE":"U","EPOCH":"2023-03-06T04:36:31.367808","MEAN_MOTION":"15.06405419","MEAN_ELEMENT_THEORY":"SGP4","TLE_LINE1":"1 48429U 21040B   23065.19202972  .00006081  00000-0  42675-3 0  9994","DECAY_DATE":null,"SITE":"AFETR","ARG_OF_PERICENTER":"108.5620","OBJECT_TYPE":"PAYLOAD","MEAN_MOTION_DOT":"0.00006081","INCLINATION":"53.0549","EPHEMERIS_TYPE":"0","REF_FRAME":"TEME","ECCENTRICITY":"0.00017100"}];
